STARLINK-34098          
1 64080U 25107S   26068.43440538  .00028649  00000+0  10460-2 0  9997
2 64080  42.9976 202.7882 0002037 184.0291 176.0544 15.27598783 46083
ARCSTONE                
1 64540U 25135N   26068.88991918  .00026427  00000+0  94900-3 0  9995
2 64540  97.4495 185.9194 0004120 166.7863 193.3485 15.28638458 39847
